{"type": "FeatureCollection", "features": [ {"type": "Feature", "properties": {"norad_id": 38552, "name": "METEOSAT-10 (MSG-3)", "group": "weather", "lat": 4.163545532520661, "lon": 163.3041404236412, "alt_km": 35787.09635114749, "timestamp": "2025-12-19T04:59:47.942205+00:00", "meta": {"OBJECT_NAME": "METEOSAT-10 (MSG-3)", "OBJECT_ID": "2012-035B", "EPOCH": "2025-12-18T20:08:45.252096", "MEAN_MOTION": 1.00276454, "ECCENTRICITY": 7.009e-05, "INCLINATION": 4.2423, "RA_OF_ASC_NODE": 61.7076, "ARG_OF_PERICENTER": 269.9654, "MEAN_ANOMALY": 58.4753, "EPHEMERIS_TYPE": 0, "CLASSIFICATION_TYPE": "U", "NORAD_CAT_ID": 38552, "ELEMENT_SET_NO": 999, "REV_AT_EPOCH": 4904, "BSTAR": 0, "MEAN_MOTION_DOT": 1.7e-07, "MEAN_MOTION_DDOT": 0}, "tle": {"line1": "1 38552U 12035B   25352.83941264  .00000017  00000+0  00000+0 0  9994", "line2": "2 38552   4.2423  61.7076 0000700 269.9654  58.4753  1.00276454 49043"}}, "geometry": {"type": "Point", "coordinates": [163.3041404236412, 4.163545532520661]}}, {"type": "Feature", "properties": {"norad_id": 38771, "name": "METOP-B", "group": "weather", "lat": 47.82927927067604, "lon": 33.34901781814674, "alt_km": 815.9529590509055, "timestamp": "2025-12-19T04:59:47.942216+00:00", "meta": {"OBJECT_NAME": "METOP-B", "OBJECT_ID": "2012-049A", "EPOCH": "2025-12-18T22:00:40.440672", "MEAN_MOTION": 14.21410671, "ECCENTRICITY": 0.00031297, "INCLINATION": 98.6791, "RA_OF_ASC_NODE": 42.771, "ARG_OF_PERICENTER": 131.1266, "MEAN_ANOMALY": 229.0181, "EPHEMERIS_TYPE": 0, "CLASSIFICATION_TYPE": "U", "NORAD_CAT_ID": 38771, "ELEMENT_SET_NO": 999, "REV_AT_EPOCH": 68765, "BSTAR": 7.372755e-05, "MEAN_MOTION_DOT": 1.18e-06, "MEAN_MOTION_DDOT": 0}, "tle": {"line1": "1 38771U 12049A   25352.91713473  .00000118  00000+0  73728-4 0  9994", "line2": "2 38771  98.6791  42.7710 0003129 131.1266 229.0181 14.21410671687656"}}, "geometry": {"type": "Point", "coordinates": [33.34901781814674, 47.82927927067604]}}, {"type": "Feature", "properties": {"norad_id": 39216, "name": "INSAT-3D", "group": "weather", "lat": -0.6994529495957015, "lon": -67.5398035451886, "alt_km": 35783.68909519231, "timestamp": "2025-12-19T04:59:47.942229+00:00", "meta": {"OBJECT_NAME": "INSAT-3D", "OBJECT_ID": "2013-038B", "EPOCH": "2025-12-17T17:21:59.330304", "MEAN_MOTION": 1.00267779, "ECCENTRICITY": 0.00012009, "INCLINATION": 1.4572, "RA_OF_ASC_NODE": 84.9421, "ARG_OF_PERICENTER": 166.0293, "MEAN_ANOMALY": 225.6028, "EPHEMERIS_TYPE": 0, "CLASSIFICATION_TYPE": "U", "NORAD_CAT_ID": 39216, "ELEMENT_SET_NO": 999, "REV_AT_EPOCH": 4526, "BSTAR": 0, "MEAN_MOTION_DOT": -3.16e-06, "MEAN_MOTION_DDOT": 0}, "tle": {"line1": "1 39216U 13038B   25351.72360336 -.00000316  00000+0  00000+0 0  9991", "line2": "2 39216   1.4572  84.9421 0001200 166.0293 225.6028  1.00267779 45261"}}, "geometry": {"type": "Point", "coordinates": [-67.5398035451886, -0.6994529495957015]}}, {"type": "Feature", "properties": {"norad_id": 39260, "name": "FENGYUN 3C", "group": "weather", "lat": 17.008279005929808, "lon": 153.18647985043435, "alt_km": 830.1768396398775, "timestamp": "2025-12-19T04:59:47.942240+00:00", "meta": {"OBJECT_NAME": "FENGYUN 3C", "OBJECT_ID": "2013-052A", "EPOCH": "2025-12-18T23:08:30.414624", "MEAN_MOTION": 14.15698278, "ECCENTRICITY": 0.00146301, "INCLINATION": 98.4769, "RA_OF_ASC_NODE": 330.3398, "ARG_OF_PERICENTER": 177.8687, "MEAN_ANOMALY": 182.2553, "EPHEMERIS_TYPE": 0, "CLASSIFICATION_TYPE": "U", "NORAD_CAT_ID": 39260, "ELEMENT_SET_NO": 999, "REV_AT_EPOCH": 63306, "BSTAR": 6.3829641e-05, "MEAN_MOTION_DOT": 8.4e-07, "MEAN_MOTION_DDOT": 0}, "tle": {"line1": "1 39260U 13052A   25352.96424091  .00000084  00000+0  63830-4 0  9998", "line2": "2 39260  98.4769 330.3398 0014630 177.8687 182.2553 14.15698278633067"}}, "geometry": {"type": "Point", "coordinates": [153.18647985043435, 17.008279005929808]}}, {"type": "Feature", "properties": {"norad_id": 40069, "name": "METEOR-M 2", "group": "weather", "lat": -79.34383549324461, "lon": 23.0874105705493, "alt_km": 827.7983444651, "timestamp": "2025-12-19T04:59:47.942251+00:00", "meta": {"OBJECT_NAME": "METEOR-M 2", "OBJECT_ID": "2014-037A", "EPOCH": "2025-12-18T22:37:53.878944", "MEAN_MOTION": 14.2138848, "ECCENTRICITY": 0.00052908, "INCLINATION": 98.4897, "RA_OF_ASC_NODE": 330.2897, "ARG_OF_PERICENTER": 190.096, "MEAN_ANOMALY": 170.0113, "EPHEMERIS_TYPE": 0, "CLASSIFICATION_TYPE": "U", "NORAD_CAT_ID": 40069, "ELEMENT_SET_NO": 999, "REV_AT_EPOCH": 59371, "BSTAR": 4.2895813e-05, "MEAN_MOTION_DOT": 5.2e-07, "MEAN_MOTION_DDOT": 0}, "tle": {"line1": "1 40069U 14037A   25352.94298471  .00000052  00000+0  42896-4 0  9994", "line2": "2 40069  98.4897 330.2897 0005290 190.0960 170.0113 14.21388480593716"}}, "geometry": {"type": "Point", "coordinates": [23.0874105705493, -79.34383549324461]}}, {"type": "Feature", "properties": {"norad_id": 40267, "name": "HIMAWARI-8", "group": "weather", "lat": -0.00639353284452081, "lon": -56.3296534051143, "alt_km": 35782.59998313075, "timestamp": "2025-12-19T04:59:47.942263+00:00", "meta": {"OBJECT_NAME": "HIMAWARI-8", "OBJECT_ID": "2014-060A", "EPOCH": "2025-12-18T22:31:31.578816", "MEAN_MOTION": 1.002717, "ECCENTRICITY": 8.519e-05, "INCLINATION": 0.0123, "RA_OF_ASC_NODE": 91.5186, "ARG_OF_PERICENTER": 201.9024, "MEAN_ANOMALY": 272.9248, "EPHEMERIS_TYPE": 0, "CLASSIFICATION_TYPE": "U", "NORAD_CAT_ID": 40267, "ELEMENT_SET_NO": 999, "REV_AT_EPOCH": 4095, "BSTAR": 0, "MEAN_MOTION_DOT": -2.5e-06, "MEAN_MOTION_DDOT": 0}, "tle": {"line1": "1 40267U 14060A   25352.93855994 -.00000250  00000+0  00000+0 0  9995", "line2": "2 40267   0.0123  91.5186 0000851 201.9024 272.9248  1.00271700 40959"}}, "geometry": {"type": "Point", "coordinates": [-56.3296534051143, -0.00639353284452081]}}, {"type": "Feature", "properties": {"norad_id": 40367, "name": "FENGYUN 2G", "group": "weather", "lat": -0.6841151507566005, "lon": -97.7074492742449, "alt_km": 35777.88144607723, "timestamp": "2025-12-19T04:59:47.942275+00:00", "meta": {"OBJECT_NAME": "FENGYUN 2G", "OBJECT_ID": "2014-090A", "EPOCH": "2025-12-18T18:58:27.282720", "MEAN_MOTION": 1.00262065, "ECCENTRICITY": 0.00027475, "INCLINATION": 5.183, "RA_OF_ASC_NODE": 75.0287, "ARG_OF_PERICENTER": 205.322, "MEAN_ANOMALY": 191.2511, "EPHEMERIS_TYPE": 0, "CLASSIFICATION_TYPE": "U", "NORAD_CAT_ID": 40367, "ELEMENT_SET_NO": 999, "REV_AT_EPOCH": 4019, "BSTAR": 0, "MEAN_MOTION_DOT": -2.78e-06, "MEAN_MOTION_DDOT": 0}, "tle": {"line1": "1 40367U 14090A   25352.79059355 -.00000278  00000+0  00000+0 0  9990", "line2": "2 40367   5.1830  75.0287 0002747 205.3220 191.2511  1.00262065 40198"}}, "geometry": {"type": "Point", "coordinates": [-97.7074492742449, -0.6841151507566005]}}, {"type": "Feature", "properties": {"norad_id": 40732, "name": "METEOSAT-11 (MSG-4)", "group": "weather", "lat": 2.709885405512619, "lon": 172.22015004099305, "alt_km": 35783.405916512864, "timestamp": "2025-12-19T04:59:47.942287+00:00", "meta": {"OBJECT_NAME": "METEOSAT-11 (MSG-4)", "OBJECT_ID": "2015-034A", "EPOCH": "2025-12-18T20:11:15.012672", "MEAN_MOTION": 1.00269399, "ECCENTRICITY": 8.622e-05, "INCLINATION": 2.7513, "RA_OF_ASC_NODE": 71.9862, "ARG_OF_PERICENTER": 135.0917, "MEAN_ANOMALY": 192.6466, "EPHEMERIS_TYPE": 0, "CLASSIFICATION_TYPE": "U", "NORAD_CAT_ID": 40732, "ELEMENT_SET_NO": 999, "REV_AT_EPOCH": 540, "BSTAR": 0, "MEAN_MOTION_DOT": 8.4e-07, "MEAN_MOTION_DDOT": 0}, "tle": {"line1": "1 40732U 15034A   25352.84114598  .00000084  00000+0  00000+0 0  9996", "line2": "2 40732   2.7513  71.9862 0000862 135.0917 192.6466  1.00269399  5403"}}, "geometry": {"type": "Point", "coordinates": [172.22015004099305, 2.709885405512619]}}, {"type": "Feature", "properties": {"norad_id": 41105, "name": "ELEKTRO-L 2", "group": "weather", "lat": 6.063464761719141, "lon": 148.41416926396073, "alt_km": 35795.3743252967, "timestamp": "2025-12-19T04:59:47.942299+00:00", "meta": {"OBJECT_NAME": "ELEKTRO-L 2", "OBJECT_ID": "2015-074A", "EPOCH": "2025-12-18T01:14:27.090816", "MEAN_MOTION": 1.00272597, "ECCENTRICITY": 0.00035785, "INCLINATION": 6.2385, "RA_OF_ASC_NODE": 72.7657, "ARG_OF_PERICENTER": 208.6234, "MEAN_ANOMALY": 169.659, "EPHEMERIS_TYPE": 0, "CLASSIFICATION_TYPE": "U", "NORAD_CAT_ID": 41105, "ELEMENT_SET_NO": 999, "REV_AT_EPOCH": 3669, "BSTAR": 0, "MEAN_MOTION_DOT": -9.7e-07, "MEAN_MOTION_DDOT": 0}, "tle": {"line1": "1 41105U 15074A   25352.05170244 -.00000097  00000+0  00000+0 0  9993", "line2": "2 41105   6.2385  72.7657 0003578 208.6234 169.6590  1.00272597 36692"}}, "geometry": {"type": "Point", "coordinates": [148.41416926396073, 6.063464761719141]}}, {"type": "Feature", "properties": {"norad_id": 41752, "name": "INSAT-3DR", "group": "weather", "lat": 0.02623438600174043, "lon": -123.10428027294859, "alt_km": 35736.697582187306, "timestamp": "2025-12-19T04:59:47.942312+00:00", "meta": {"OBJECT_NAME": "INSAT-3DR", "OBJECT_ID": "2016-054A", "EPOCH": "2025-12-18T15:21:37.308096", "MEAN_MOTION": 1.00271616, "ECCENTRICITY": 0.00141413, "INCLINATION": 0.1065, "RA_OF_ASC_NODE": 86.5445, "ARG_OF_PERICENTER": 184.9016, "MEAN_ANOMALY": 120.4485, "EPHEMERIS_TYPE": 0, "CLASSIFICATION_TYPE": "U", "NORAD_CAT_ID": 41752, "ELEMENT_SET_NO": 999, "REV_AT_EPOCH": 3400, "BSTAR": 0, "MEAN_MOTION_DOT": -5.2e-07, "MEAN_MOTION_DDOT": 0}, "tle": {"line1": "1 41752U 16054A   25352.64001514 -.00000052  00000+0  00000+0 0  9999", "line2": "2 41752   0.1065  86.5445 0014141 184.9016 120.4485  1.00271616 34000"}}, "geometry": {"type": "Point", "coordinates": [-123.10428027294859, 0.02623438600174043]}}]}